ONEWEB-0492             
1 54114U 22138B   24305.81764758  .00000173  00000+0  40020-3 0  9990
2 54114  87.9175  62.9673 0001672  90.7391 269.3933 13.19726153 98574
ONEWEB-0495             
1 54115U 22138C   24305.87131314 -.00000116  00000+0 -32139-3 0  9994
2 54115  87.9172  62.9674 0002378  92.6141 267.5264 13.19724136 99433
ONEWEB-0497             
1 54116U 22138D   24305.80815935  .00000182  00000+0  42304-3 0  9992
2 54116  87.9169  62.9623 0001742  97.3660 262.7671 13.19724345 98548
ONEWEB-0499             
1 54117U 22138E   24305.86658921  .00000019  00000+0  13875-4 0  9990
2 54117  87.9173  62.9581 0001993 109.4866 250.6482 13.19722503 98560
ONEWEB-0500             
1 54118U 22138F   24305.86975564 -.00000131  00000+0 -35909-3 0  9994
2 54118  87.9170  62.9494 0001586  96.4143 263.7171 13.19723656 98573
ONEWEB-0501             
1 54119U 22138G   24305.82395113 -.00000255  00000+0 -66877-3 0  9992
2 54119  87.9172  62.9556 0002143  95.5458 264.5919 13.19724502 99418
ONEWEB-0502             
1 54120U 22138H   24306.34046096  .00000122  00000+0  27174-3 0  9993
2 54120  87.9165  62.8395 0001949  99.4410 260.6943 13.19726671 99509
ONEWEB-0503             
1 54121U 22138J   24305.79867472  .00000124  00000+0  27854-3 0  9998
2 54121  87.9168  62.9532 0001606 119.1931 240.9363 13.19726865 98551
